NORAD_CAT_ID,OBJECT_NAME,OBJECT_TYPE,EPOCH,MEAN_MOTION,ECCENTRICITY,INCLINATION,RA_OF_ASC_NODE,ARG_OF_PERICENTER,MEAN_ANOMALY,BSTAR,MEAN_MOTION_DOT,MEAN_MOTION_DDOT,TLE_LINE0,TLE_LINE1,TLE_LINE2,SEMIMAJOR_AXIS,PERIOD,APOGEE,PERIGEE,DECAYED
52306.0,STARLINK-3747,PAYLOAD,2023-02-22 11:06:40,15.08844257,0.0001427,53.2189,37.6072,100.8223,259.293,0.00011459,1.536e-05,0.0,0 STARLINK-3747,1 52306U 22041AX  23053.46296487  .00001536  00000-0  11459-3 0  9992,2 52306  53.2189  37.6072 0001427 100.8223 259.2930 15.08844257 48108,6917.867,95.437,540.72,538.745,0.0
52306.0,STARLINK-3747,PAYLOAD,2023-02-23 10:57:27,15.08845883,0.000126,53.2187,33.1448,108.5015,251.6114,0.00023356,3.432e-05,0.0,0 STARLINK-3747,1 52306U 22041AX  23054.45656703  .00003432  00000-0  23356-3 0  9999,2 52306  53.2187  33.1448 0001260 108.5015 251.6114 15.08845883 48255,6917.862,95.437,540.599,538.856,0.0
52306.0,STARLINK-3747,PAYLOAD,2023-02-24 07:37:27,15.08857635,0.0001355,53.2187,29.2805,100.1429,259.9716,0.00058057,8.968e-05,0.0,0 STARLINK-3747,1 52306U 22041AX  23055.31768484  .00008968  00000-0  58057-3 0  9990,2 52306  53.2187  29.2805 0001355 100.1429 259.9716 15.08857635 48381,6917.826,95.436,540.629,538.754,0.0
52306.0,STARLINK-3747,PAYLOAD,2023-02-24 21:55:56,15.08841599,0.0001532,53.2186,26.6061,91.7199,268.3968,0.00012064,1.633e-05,0.0,0 STARLINK-3747,1 52306U 22041AX  23055.91385049  .00001633  00000-0  12064-3 0  9998,2 52306  53.2186  26.6061 0001532  91.7199 268.3968 15.08841599 48476,6917.876,95.437,540.8,538.681,0.0
52306.0,STARLINK-3747,PAYLOAD,2023-02-25 07:28:15,15.08842946,0.0001396,53.2187,24.821,100.4157,259.6992,0.00010878,1.444e-05,0.0,0 STARLINK-3747,1 52306U 22041AX  23056.31129064  .00001444  00000-0  10878-3 0  9997,2 52306  53.2187  24.8210 0001396 100.4157 259.6992 15.08842946 48537,6917.871,95.437,540.702,538.771,0.0
52306.0,STARLINK-3747,PAYLOAD,2023-02-25 15:25:11,15.08837375,0.0001383,53.2185,23.3337,99.2417,260.8732,1.2534e-05,-8.8e-07,0.0,0 STARLINK-3747,1 52306U 22041AX  23056.64249299 -.00000088  00000-0  12534-4 0  9992,2 52306  53.2185  23.3337 0001383  99.2417 260.8732 15.08837375 48580,6917.888,95.438,540.71,538.797,0.0
52306.0,STARLINK-3747,PAYLOAD,2023-02-26 00:57:29,15.08852561,0.0001188,53.2179,21.5489,98.0765,262.0362,0.00013258,1.823e-05,0.0,0 STARLINK-3747,1 52306U 22041AX  23057.03992660  .00001823  00000-0  13258-3 0  9993,2 52306  53.2179  21.5489 0001188  98.0765 262.0362 15.08852561 48641,6917.842,95.437,540.529,538.885,0.0
52306.0,STARLINK-3747,PAYLOAD,2023-02-26 07:19:02,15.08862238,0.0001316,53.218,20.3593,102.2325,257.8814,0.00062232,9.636e-05,0.0,0 STARLINK-3747,1 52306U 22041AX  23057.30488451  .00009636  00000-0  62232-3 0  9997,2 52306  53.2180  20.3593 0001316 102.2325 257.8814 15.08862238 48689,6917.812,95.436,540.588,538.767,0.0
52306.0,STARLINK-3747,PAYLOAD,2023-02-26 21:37:30,15.0884998,0.0001694,53.218,17.6833,96.6081,263.5104,0.00030745,4.61e-05,0.0,0 STARLINK-3747,1 52306U 22041AX  23057.90104846  .00004610  00000-0  30745-3 0  9997,2 52306  53.2180  17.6833 0001694  96.6081 263.5104 15.08849980 48774,6917.85,95.437,540.887,538.543,0.0
52306.0,STARLINK-3747,PAYLOAD,2023-02-27 02:23:39,15.08854216,0.000151,53.2182,16.7912,102.2377,257.8784,0.00041512,6.327e-05,0.0,0 STARLINK-3747,1 52306U 22041AX  23058.09976629  .00006327  00000-0  41512-3 0  9995,2 52306  53.2182  16.7912 0001510 102.2377 257.8784 15.08854216 48805,6917.837,95.437,540.747,538.657,0.0
52306.0,STARLINK-3747,PAYLOAD,2023-02-27 08:45:11,15.08876953,0.0001185,53.2188,15.6029,90.3641,269.7487,0.0014678,0.00023173,0.0,0 STARLINK-3747,1 52306U 22041AX  23058.36472096  .00023173  00000-0  14678-2 0  9994,2 52306  53.2188  15.6029 0001185  90.3641 269.7487 15.08876953 48845,6917.767,95.435,540.452,538.813,0.0
52306.0,STARLINK-3747,PAYLOAD,2023-02-27 21:28:16,15.08868488,0.0001276,53.2192,13.2232,98.9321,261.1816,0.0013845,0.00021832,0.0,0 STARLINK-3747,1 52306U 22041AX  23058.89463884  .00021832  00000-0  13845-2 0  9992,2 52306  53.2192  13.2232 0001276  98.9321 261.1816 15.08868488 48925,6917.793,95.436,540.541,538.776,0.0
52306.0,STARLINK-3747,PAYLOAD,2023-02-28 03:49:48,15.08908489,0.000152,53.2187,12.0353,96.5217,263.5948,0.0030592,0.00048828,0.0,0 STARLINK-3747,1 52306U 22041AX  23059.15958921  .00048828  00000-0  30592-2 0  9995,2 52306  53.2187  12.0353 0001520  96.5217 263.5948 15.08908489 48962,6917.671,95.433,540.588,538.485,0.0
52306.0,STARLINK-3747,PAYLOAD,2023-02-28 07:00:34,15.0892429,0.0001083,53.2188,11.4406,94.2052,265.9064,0.0036334,0.00058149,0.0,0 STARLINK-3747,1 52306U 22041AX  23059.29206274  .00058149  00000-0  36334-2 0  9994,2 52306  53.2188  11.4406 0001083  94.2052 265.9064 15.08924290 48986,6917.623,95.432,540.237,538.739,0.0
52306.0,STARLINK-3747,PAYLOAD,2023-03-01 03:40:38,15.08790491,0.0001427,53.2186,7.5747,131.8385,228.2729,0.0014158,0.00022286,0.0,0 STARLINK-3747,1 52306U 22041AX  23060.15321917  .00022286  00000-0  14158-2 0  9996,2 52306  53.2186   7.5747 0001427 131.8385 228.2729 15.08790491 49117,6918.032,95.441,540.884,538.91,0.0
52306.0,STARLINK-3747,PAYLOAD,2023-03-01 08:26:48,15.08800733,0.0001436,53.2179,6.683,136.3864,223.7241,0.0017161,0.000271,0.0,0 STARLINK-3747,1 52306U 22041AX  23060.35194490  .00027100  00000-0  17161-2 0  9999,2 52306  53.2179   6.6830 0001436 136.3864 223.7241 15.08800733 49147,6918.0,95.44,540.859,538.872,0.0
52306.0,STARLINK-3747,PAYLOAD,2023-03-02 03:31:25,15.08855454,0.0001551,53.2186,3.1162,139.8055,220.3052,0.0011672,0.00018345,0.0,0 STARLINK-3747,1 52306U 22041AX  23061.14682766  .00018345  00000-0  11672-2 0  9997,2 52306  53.2186   3.1162 0001551 139.8055 220.3052 15.08855454 49269,6917.833,95.437,540.771,538.625,0.0
52306.0,STARLINK-3747,PAYLOAD,2023-03-02 05:06:49,15.08842768,0.0001674,53.2189,2.8186,135.9947,224.1178,0.0027806,0.00044247,0.0,0 STARLINK-3747,1 52306U 22041AX  23061.21307184  .00044247  00000-0  27806-2 0  9999,2 52306  53.2189   2.8186 0001674 135.9947 224.1178 15.08842768 49273,6917.872,95.437,540.895,538.579,0.0
52306.0,STARLINK-3747,PAYLOAD,2023-03-03 06:32:57,15.0891643,0.0001265,53.2176,358.0598,147.1693,212.9378,0.003036,0.00048464,0.0,0 STARLINK-3747,1 52306U 22041AX  23062.27288415  .00048464  00000-0  30360-2 0  9995,2 52306  53.2176 358.0598 0001265 147.1693 212.9378 15.08916430 49434,6917.647,95.433,540.387,538.637,0.0
52306.0,STARLINK-3747,PAYLOAD,2023-03-04 06:23:43,15.08909039,0.0001051,53.2184,353.5992,110.5825,249.528,0.0025451,0.00040527,0.0,0 STARLINK-3747,1 52306U 22041AX  23063.26647177  .00040527  00000-0  25451-2 0  9996,2 52306  53.2184 353.5992 0001051 110.5825 249.5280 15.08909039 49586,6917.669,95.433,540.261,538.807,0.0
52306.0,STARLINK-3747,PAYLOAD,2023-03-04 19:06:49,15.08818146,0.000132,53.218,351.2196,90.1572,269.9571,0.0017819,0.00028168,0.0,0 STARLINK-3747,1 52306U 22041AX  23063.79640945  .00028168  00000-0  17819-2 0  9996,2 52306  53.2180 351.2196 0001320  90.1572 269.9571 15.08818146 49660,6917.947,95.439,540.725,538.899,0.0
52306.0,STARLINK-3747,PAYLOAD,2023-03-05 01:28:22,15.08825353,0.0001254,53.2182,350.0304,79.0473,281.066,0.0012775,0.00020094,0.0,0 STARLINK-3747,1 52306U 22041AX  23064.06137274  .00020094  00000-0  12775-2 0  9999,2 52306  53.2182 350.0304 0001254  79.0473 281.0660 15.08825353 49709,6917.925,95.438,540.658,538.923,0.0
52306.0,STARLINK-3747,PAYLOAD,2023-03-05 22:08:23,15.08849636,0.0001237,53.2187,346.1668,73.7898,286.323,0.001349,0.00021252,0.0,0 STARLINK-3747,1 52306U 22041AX  23064.92249853  .00021252  00000-0  13490-2 0  9993,2 52306  53.2187 346.1668 0001237  73.7898 286.3230 15.08849636 49831,6917.851,95.437,540.572,538.86,0.0
52306.0,STARLINK-3747,PAYLOAD,2023-03-06 04:29:55,15.08873762,0.0001203,53.2181,344.976,80.2062,279.9065,0.0018569,0.00029416,0.0,0 STARLINK-3747,1 52306U 22041AX  23065.18745256  .00029416  00000-0  18569-2 0  9992,2 52306  53.2181 344.9760 0001203  80.2062 279.9065 15.08873762 49878,6917.777,95.435,540.474,538.81,0.0
52306.0,STARLINK-3747,PAYLOAD,2023-03-06 18:48:24,15.08845056,0.0001825,53.2196,342.3018,61.8187,298.299,0.00061607,9.532e-05,0.0,0 STARLINK-3747,1 52306U 22041AX  23065.78361795  .00009532  00000-0  61607-3 0  9999,2 52306  53.2196 342.3018 0001825  61.8187 298.2990 15.08845056 49961,6917.865,95.437,540.992,538.467,0.0
52306.0,STARLINK-3747,PAYLOAD,2023-03-07 04:20:42,15.08864204,0.0001437,53.219,340.5157,61.5173,298.5964,0.0010793,0.00016942,0.0,0 STARLINK-3747,1 52306U 22041AX  23066.18105262  .00016942  00000-0  10793-2 0  9991,2 52306  53.2190 340.5157 0001437  61.5173 298.5964 15.08864204 50029,6917.806,95.436,540.665,538.677,0.0
52306.0,STARLINK-3747,PAYLOAD,2023-03-07 18:39:11,15.08840526,0.0001226,53.2189,337.8401,80.8313,279.2818,0.00094118,0.00014723,0.0,0 STARLINK-3747,1 52306U 22041AX  23066.77721692  .00014723  00000-0  94118-3 0  9996,2 52306  53.2189 337.8401 0001226  80.8313 279.2818 15.08840526 50119,6917.879,95.438,540.592,538.896,0.0
52306.0,STARLINK-3747,PAYLOAD,2023-03-08 02:36:06,15.08866054,0.0001408,53.2189,336.3534,90.991,269.1244,0.0016277,0.0002573,0.0,0 STARLINK-3747,1 52306U 22041AX  23067.10841280  .00025730  00000-0  16277-2 0  9999,2 52306  53.2189 336.3534 0001408  90.9910 269.1244 15.08866054 50167,6917.801,95.436,540.64,538.692,0.0
52306.0,STARLINK-3747,PAYLOAD,2023-03-08 16:54:35,15.08847743,0.0003483,53.2156,333.6759,70.8699,289.267,0.0010138,0.00015888,0.0,0 STARLINK-3747,1 52306U 22041AX  23067.70458082  .00015888  00000-0  10138-2 0  9992,2 52306  53.2156 333.6759 0003483  70.8699 289.2670 15.08847743 50256,6917.857,95.437,542.131,537.312,0.0
52306.0,STARLINK-3747,PAYLOAD,2023-03-09 00:51:31,15.08852382,0.0001346,53.2174,332.1902,52.659,307.4525,0.0013995,0.00022063,0.0,0 STARLINK-3747,1 52306U 22041AX  23068.03578129  .00022063  00000-0  13995-2 0  9991,2 52306  53.2174 332.1902 0001346  52.6590 307.4525 15.08852382 50307,6917.843,95.437,540.639,538.776,0.0
